{"type": "FeatureCollection", "features": [ {"type": "Feature", "properties": {"norad_id": 38552, "name": "METEOSAT-10 (MSG-3)", "group": "weather", "lat": -2.9848624093059772, "lon": -73.75676298622878, "alt_km": 35782.64720239034, "timestamp": "2025-12-13T13:34:34.721341+00:00", "meta": {"OBJECT_NAME": "METEOSAT-10 (MSG-3)", "OBJECT_ID": "2012-035B", "EPOCH": "2025-12-12T22:02:27.070368", "MEAN_MOTION": 1.00275079, "ECCENTRICITY": 7.887e-05, "INCLINATION": 4.2295, "RA_OF_ASC_NODE": 61.7247, "ARG_OF_PERICENTER": 254.6187, "MEAN_ANOMALY": 96.3071, "EPHEMERIS_TYPE": 0, "CLASSIFICATION_TYPE": "U", "NORAD_CAT_ID": 38552, "ELEMENT_SET_NO": 999, "REV_AT_EPOCH": 4898, "BSTAR": 0, "MEAN_MOTION_DOT": 6e-08, "MEAN_MOTION_DDOT": 0}, "tle": {"line1": "1 38552U 12035B   25346.91836887  .00000006  00000+0  00000+0 0  9998", "line2": "2 38552   4.2295  61.7247 0000788 254.6187  96.3071  1.00275079 48986"}}, "geometry": {"type": "Point", "coordinates": [-73.75676298622878, -2.9848624093059772]}}, {"type": "Feature", "properties": {"norad_id": 38771, "name": "METOP-B", "group": "weather", "lat": -8.228390433389045, "lon": 38.77624905935878, "alt_km": 826.3430815105121, "timestamp": "2025-12-13T13:34:34.721351+00:00", "meta": {"OBJECT_NAME": "METOP-B", "OBJECT_ID": "2012-049A", "EPOCH": "2025-12-13T00:06:00.112608", "MEAN_MOTION": 14.21408503, "ECCENTRICITY": 0.00029229, "INCLINATION": 98.68, "RA_OF_ASC_NODE": 36.9585, "ARG_OF_PERICENTER": 143.5958, "MEAN_ANOMALY": 216.5419, "EPHEMERIS_TYPE": 0, "CLASSIFICATION_TYPE": "U", "NORAD_CAT_ID": 38771, "ELEMENT_SET_NO": 999, "REV_AT_EPOCH": 68681, "BSTAR": 0.00011960543, "MEAN_MOTION_DOT": 2.18e-06, "MEAN_MOTION_DDOT": 0}, "tle": {"line1": "1 38771U 12049A   25347.00416797  .00000218  00000+0  11961-3 0  9998", "line2": "2 38771  98.6800  36.9585 0002922 143.5958 216.5419 14.21408503686810"}}, "geometry": {"type": "Point", "coordinates": [38.77624905935878, -8.228390433389045]}}, {"type": "Feature", "properties": {"norad_id": 39216, "name": "INSAT-3D", "group": "weather", "lat": -0.6887693816346097, "lon": 55.6739357075845, "alt_km": 35792.677590609, "timestamp": "2025-12-13T13:34:34.721361+00:00", "meta": {"OBJECT_NAME": "INSAT-3D", "OBJECT_ID": "2013-038B", "EPOCH": "2025-12-12T22:39:23.531904", "MEAN_MOTION": 1.00269908, "ECCENTRICITY": 0.00014344, "INCLINATION": 1.4455, "RA_OF_ASC_NODE": 84.9928, "ARG_OF_PERICENTER": 164.6717, "MEAN_ANOMALY": 301.5993, "EPHEMERIS_TYPE": 0, "CLASSIFICATION_TYPE": "U", "NORAD_CAT_ID": 39216, "ELEMENT_SET_NO": 999, "REV_AT_EPOCH": 4521, "BSTAR": 0, "MEAN_MOTION_DOT": -3.26e-06, "MEAN_MOTION_DDOT": 0}, "tle": {"line1": "1 39216U 13038B   25346.94402236 -.00000326  00000+0  00000+0 0  9996", "line2": "2 39216   1.4455  84.9928 0001434 164.6717 301.5993  1.00269908 45213"}}, "geometry": {"type": "Point", "coordinates": [55.6739357075845, -0.6887693816346097]}}, {"type": "Feature", "properties": {"norad_id": 39260, "name": "FENGYUN 3C", "group": "weather", "lat": -41.44984925838149, "lon": 137.63680855135163, "alt_km": 837.376098807451, "timestamp": "2025-12-13T13:34:34.721372+00:00", "meta": {"OBJECT_NAME": "FENGYUN 3C", "OBJECT_ID": "2013-052A", "EPOCH": "2025-12-13T00:39:27.870624", "MEAN_MOTION": 14.15696413, "ECCENTRICITY": 0.00143132, "INCLINATION": 98.4763, "RA_OF_ASC_NODE": 324.6927, "ARG_OF_PERICENTER": 195.177, "MEAN_ANOMALY": 164.8977, "EPHEMERIS_TYPE": 0, "CLASSIFICATION_TYPE": "U", "NORAD_CAT_ID": 39260, "ELEMENT_SET_NO": 999, "REV_AT_EPOCH": 63222, "BSTAR": 0.00010899239, "MEAN_MOTION_DOT": 1.73e-06, "MEAN_MOTION_DDOT": 0}, "tle": {"line1": "1 39260U 13052A   25347.02740591  .00000173  00000+0  10899-3 0  9990", "line2": "2 39260  98.4763 324.6927 0014313 195.1770 164.8977 14.15696413632221"}}, "geometry": {"type": "Point", "coordinates": [137.63680855135163, -41.44984925838149]}}, {"type": "Feature", "properties": {"norad_id": 40069, "name": "METEOR-M 2", "group": "weather", "lat": -39.654441173096934, "lon": 138.00612071146676, "alt_km": 823.6182877730453, "timestamp": "2025-12-13T13:34:34.721381+00:00", "meta": {"OBJECT_NAME": "METEOR-M 2", "OBJECT_ID": "2014-037A", "EPOCH": "2025-12-13T00:43:04.012320", "MEAN_MOTION": 14.21386364, "ECCENTRICITY": 0.00049908, "INCLINATION": 98.4905, "RA_OF_ASC_NODE": 324.6032, "ARG_OF_PERICENTER": 208.8837, "MEAN_ANOMALY": 151.2066, "EPHEMERIS_TYPE": 0, "CLASSIFICATION_TYPE": "U", "NORAD_CAT_ID": 40069, "ELEMENT_SET_NO": 999, "REV_AT_EPOCH": 59287, "BSTAR": 9.5654846e-05, "MEAN_MOTION_DOT": 1.67e-06, "MEAN_MOTION_DDOT": 0}, "tle": {"line1": "1 40069U 14037A   25347.02990755  .00000167  00000+0  95655-4 0  9999", "line2": "2 40069  98.4905 324.6032 0004990 208.8837 151.2066 14.21386364592874"}}, "geometry": {"type": "Point", "coordinates": [138.00612071146676, -39.654441173096934]}}, {"type": "Feature", "properties": {"norad_id": 40267, "name": "HIMAWARI-8", "group": "weather", "lat": 0.0063941429832190455, "lon": 66.7857925492278, "alt_km": 35789.43425103977, "timestamp": "2025-12-13T13:34:34.721392+00:00", "meta": {"OBJECT_NAME": "HIMAWARI-8", "OBJECT_ID": "2014-060A", "EPOCH": "2025-12-12T05:35:19.004640", "MEAN_MOTION": 1.00270039, "ECCENTRICITY": 0.00012109, "INCLINATION": 0.0353, "RA_OF_ASC_NODE": 190.2834, "ARG_OF_PERICENTER": 114.4453, "MEAN_ANOMALY": 0.9332, "EPHEMERIS_TYPE": 0, "CLASSIFICATION_TYPE": "U", "NORAD_CAT_ID": 40267, "ELEMENT_SET_NO": 999, "REV_AT_EPOCH": 4088, "BSTAR": 0, "MEAN_MOTION_DOT": -2.66e-06, "MEAN_MOTION_DDOT": 0}, "tle": {"line1": "1 40267U 14060A   25346.23285885 -.00000266  00000+0  00000+0 0  9994", "line2": "2 40267   0.0353 190.2834 0001210 114.4453   0.9332  1.00270039 40884"}}, "geometry": {"type": "Point", "coordinates": [66.7857925492278, 0.0063941429832190455]}}, {"type": "Feature", "properties": {"norad_id": 40367, "name": "FENGYUN 2G", "group": "weather", "lat": -3.9117524716226972, "lon": 25.791882866175982, "alt_km": 35793.82098844497, "timestamp": "2025-12-13T13:34:34.721408+00:00", "meta": {"OBJECT_NAME": "FENGYUN 2G", "OBJECT_ID": "2014-090A", "EPOCH": "2025-12-12T19:43:26.315040", "MEAN_MOTION": 1.00264152, "ECCENTRICITY": 0.00031038, "INCLINATION": 5.1689, "RA_OF_ASC_NODE": 75.0978, "ARG_OF_PERICENTER": 198.3363, "MEAN_ANOMALY": 203.7148, "EPHEMERIS_TYPE": 0, "CLASSIFICATION_TYPE": "U", "NORAD_CAT_ID": 40367, "ELEMENT_SET_NO": 999, "REV_AT_EPOCH": 4013, "BSTAR": 0, "MEAN_MOTION_DOT": -2.89e-06, "MEAN_MOTION_DDOT": 0}, "tle": {"line1": "1 40367U 14090A   25346.82183235 -.00000289  00000+0  00000+0 0  9994", "line2": "2 40367   5.1689  75.0978 0003103 198.3363 203.7148  1.00264152 40131"}}, "geometry": {"type": "Point", "coordinates": [25.791882866175982, -3.9117524716226972]}}, {"type": "Feature", "properties": {"norad_id": 40732, "name": "METEOSAT-11 (MSG-4)", "group": "weather", "lat": -1.8951837602863086, "lon": -64.60670460529563, "alt_km": 35787.883599268906, "timestamp": "2025-12-13T13:34:34.721429+00:00", "meta": {"OBJECT_NAME": "METEOSAT-11 (MSG-4)", "OBJECT_ID": "2015-034A", "EPOCH": "2025-12-12T22:05:04.319232", "MEAN_MOTION": 1.00267545, "ECCENTRICITY": 9.209e-05, "INCLINATION": 2.7359, "RA_OF_ASC_NODE": 72.0007, "ARG_OF_PERICENTER": 127.0226, "MEAN_ANOMALY": 223.3927, "EPHEMERIS_TYPE": 0, "CLASSIFICATION_TYPE": "U", "NORAD_CAT_ID": 40732, "ELEMENT_SET_NO": 999, "REV_AT_EPOCH": 534, "BSTAR": 0, "MEAN_MOTION_DOT": 7.3e-07, "MEAN_MOTION_DDOT": 0}, "tle": {"line1": "1 40732U 15034A   25346.92018888  .00000073  00000+0  00000+0 0  9991", "line2": "2 40732   2.7359  72.0007 0000920 127.0226 223.3927  1.00267545  5341"}}, "geometry": {"type": "Point", "coordinates": [-64.60670460529563, -1.8951837602863086]}}, {"type": "Feature", "properties": {"norad_id": 41105, "name": "ELEKTRO-L 2", "group": "weather", "lat": -2.0244454727004455, "lon": -88.4642317037775, "alt_km": 35769.66332296132, "timestamp": "2025-12-13T13:34:34.721440+00:00", "meta": {"OBJECT_NAME": "ELEKTRO-L 2", "OBJECT_ID": "2015-074A", "EPOCH": "2025-12-12T23:41:05.885088", "MEAN_MOTION": 1.0027232, "ECCENTRICITY": 0.00039313, "INCLINATION": 6.2267, "RA_OF_ASC_NODE": 72.8257, "ARG_OF_PERICENTER": 204.3127, "MEAN_ANOMALY": 145.5628, "EPHEMERIS_TYPE": 0, "CLASSIFICATION_TYPE": "U", "NORAD_CAT_ID": 41105, "ELEMENT_SET_NO": 999, "REV_AT_EPOCH": 3663, "BSTAR": 0, "MEAN_MOTION_DOT": -1.06e-06, "MEAN_MOTION_DDOT": 0}, "tle": {"line1": "1 41105U 15074A   25346.98687367 -.00000106  00000+0  00000+0 0  9998", "line2": "2 41105   6.2267  72.8257 0003931 204.3127 145.5628  1.00272320 36638"}}, "geometry": {"type": "Point", "coordinates": [-88.4642317037775, -2.0244454727004455]}}, {"type": "Feature", "properties": {"norad_id": 41752, "name": "INSAT-3DR", "group": "weather", "lat": -0.08238530074747227, "lon": 0.2916673419802981, "alt_km": 35785.83396444358, "timestamp": "2025-12-13T13:34:34.721451+00:00", "meta": {"OBJECT_NAME": "INSAT-3DR", "OBJECT_ID": "2016-054A", "EPOCH": "2025-12-12T20:40:52.275360", "MEAN_MOTION": 1.00270917, "ECCENTRICITY": 0.00143455, "INCLINATION": 0.0922, "RA_OF_ASC_NODE": 86.6925, "ARG_OF_PERICENTER": 184.0878, "MEAN_ANOMALY": 195.2354, "EPHEMERIS_TYPE": 0, "CLASSIFICATION_TYPE": "U", "NORAD_CAT_ID": 41752, "ELEMENT_SET_NO": 999, "REV_AT_EPOCH": 3395, "BSTAR": 0, "MEAN_MOTION_DOT": -6.5e-07, "MEAN_MOTION_DDOT": 0}, "tle": {"line1": "1 41752U 16054A   25346.86171615 -.00000065  00000+0  00000+0 0  9990", "line2": "2 41752   0.0922  86.6925 0014345 184.0878 195.2354  1.00270917 33959"}}, "geometry": {"type": "Point", "coordinates": [0.2916673419802981, -0.08238530074747227]}}]}